[{"OBJECT_NAME":"STARLINK-5293","OBJECT_ID":"2023-010AC","EPOCH":"2026-03-09T16:42:54.798912","MEAN_MOTION":14.98333796,"ECCENTRICITY":0.00030534,"INCLINATION":70.0001,"RA_OF_ASC_NODE":44.5723,"ARG_OF_PERICENTER":264.6455,"MEAN_ANOMALY":95.4356,"EPHEMERIS_TYPE":0,"CLASSIFICATION_TYPE":"U","NORAD_CAT_ID":55295,"ELEMENT_SET_NO":999,"REV_AT_EPOCH":17278,"BSTAR":8.9593863e-5,"MEAN_MOTION_DOT":9.76e-6,"MEAN_MOTION_DDOT":0},{"OBJECT_NAME":"HORACIO","OBJECT_ID":"2024-043A","EPOCH":"2026-03-09T21:54:40.867200","MEAN_MOTION":14.98036627,"ECCENTRICITY":0.00104103,"INCLINATION":97.8349,"RA_OF_ASC_NODE":200.1753,"ARG_OF_PERICENTER":2.9871,"MEAN_ANOMALY":357.1411,"EPHEMERIS_TYPE":0,"CLASSIFICATION_TYPE":"U","NORAD_CAT_ID":59098,"ELEMENT_SET_NO":999,"REV_AT_EPOCH":10980,"BSTAR":0.00038157841,"MEAN_MOTION_DOT":4.455e-5,"MEAN_MOTION_DDOT":0}]
